[{"OBJECT_NAME":"DMSP 5D-3 F16 (USA 172)","OBJECT_ID":"2003-048A","EPOCH":"2026-04-27T04:02:43.550304","MEAN_MOTION":14.14477289,"ECCENTRICITY":0.0005976,"INCLINATION":98.993,"RA_OF_ASC_NODE":140.6507,"ARG_OF_PERICENTER":295.541,"MEAN_ANOMALY":151.4716,"EPHEMERIS_TYPE":0,"CLASSIFICATION_TYPE":"U","NORAD_CAT_ID":28054,"ELEMENT_SET_NO":999,"REV_AT_EPOCH":16227,"BSTAR":6.8782e-5,"MEAN_MOTION_DOT":8.6e-7,"MEAN_MOTION_DDOT":0},{"OBJECT_NAME":"METEOSAT-9 (MSG-2)","OBJECT_ID":"2005-049B","EPOCH":"2026-04-26T22:20:29.264064","MEAN_MOTION":1.00275091,"ECCENTRICITY":5.12e-5,"INCLINATION":9.2489,"RA_OF_ASC_NODE":54.663,"ARG_OF_PERICENTER":343.3476,"MEAN_ANOMALY":197.694,"EPHEMERIS_TYPE":0,"CLASSIFICATION_TYPE":"U","NORAD_CAT_ID":28912,"ELEMENT_SET_NO":999,"REV_AT_EPOCH":648,"BSTAR":0,"MEAN_MOTION_DOT":1.18e-6,"MEAN_MOTION_DDOT":0},{"OBJECT_NAME":"DMSP 5D-3 F17 (USA 191)","OBJECT_ID":"2006-050A","EPOCH":"2026-04-27T04:28:44.209920","MEAN_MOTION":14.14982959,"ECCENTRICITY":0.0009697,"INCLINATION":98.7395,"RA_OF_ASC_NODE":124.7982,"ARG_OF_PERICENTER":195.1884,"MEAN_ANOMALY":164.9,"EPHEMERIS_TYPE":0,"CLASSIFICATION_TYPE":"U","NORAD_CAT_ID":29522,"ELEMENT_SET_NO":999,"REV_AT_EPOCH":521,"BSTAR":8.4839e-5,"MEAN_MOTION_DOT":1.21e-6,"MEAN_MOTION_DDOT":0},{"OBJECT_NAME":"FENGYUN 3A","OBJECT_ID":"2008-026A","EPOCH":"2026-04-26T19:20:00.432384","MEAN_MOTION":14.19559822,"ECCENTRICITY":0.00075876,"INCLINATION":98.6856,"RA_OF_ASC_NODE":58.6087,"ARG_OF_PERICENTER":277.8297,"MEAN_ANOMALY":82.2018,"EPHEMERIS_TYPE":0,"CLASSIFICATION_TYPE":"U","NORAD_CAT_ID":32958,"ELEMENT_SET_NO":999,"REV_AT_EPOCH":92811,"BSTAR":6.0171205e-5,"MEAN_MOTION_DOT":8.3e-7,"MEAN_MOTION_DDOT":0},{"OBJECT_NAME":"GOES 14","OBJECT_ID":"2009-033A","EPOCH":"2026-04-27T02:34:38.741376","MEAN_MOTION":1.00116727,"ECCENTRICITY":0.000177,"INCLINATION":1.5602,"RA_OF_ASC_NODE":83.6249,"ARG_OF_PERICENTER":314.433,"MEAN_ANOMALY":26.1159,"EPHEMERIS_TYPE":0,"CLASSIFICATION_TYPE":"U","NORAD_CAT_ID":35491,"ELEMENT_SET_NO":999,"REV_AT_EPOCH":607,"BSTAR":0,"MEAN_MOTION_DOT":-5.9e-7,"MEAN_MOTION_DDOT":0},{"OBJECT_NAME":"DMSP 5D-3 F18 (USA 210)","OBJECT_ID":"2009-057A","EPOCH":"2026-04-27T03:42:17.066016","MEAN_MOTION":14.14866687,"ECCENTRICITY":0.0011877,"INCLINATION":98.9017,"RA_OF_ASC_NODE":98.043,"ARG_OF_PERICENTER":40.6848,"MEAN_ANOMALY":319.521,"EPHEMERIS_TYPE":0,"CLASSIFICATION_TYPE":"U","NORAD_CAT_ID":35951,"ELEMENT_SET_NO":999,"REV_AT_EPOCH":85237,"BSTAR":0.00017186,"MEAN_MOTION_DOT":2.87e-6,"MEAN_MOTION_DDOT":0},{"OBJECT_NAME":"EWS-G2 (GOES 15)","OBJECT_ID":"2010-008A","EPOCH":"2026-04-27T01:12:21.760704","MEAN_MOTION":1.00272544,"ECCENTRICITY":0.0003987,"INCLINATION":1.143,"RA_OF_ASC_NODE":83.7697,"ARG_OF_PERICENTER":23.6732,"MEAN_ANOMALY":188.9494,"EPHEMERIS_TYPE":0,"CLASSIFICATION_TYPE":"U","NORAD_CAT_ID":36411,"ELEMENT_SET_NO":999,"REV_AT_EPOCH":5912,"BSTAR":0,"MEAN_MOTION_DOT":1.3e-7,"MEAN_MOTION_DDOT":0},{"OBJECT_NAME":"COMS 1","OBJECT_ID":"2010-032A","EPOCH":"2026-04-26T21:01:14.365344","MEAN_MOTION":1.00272387,"ECCENTRICITY":0.0001051,"INCLINATION":4.6751,"RA_OF_ASC_NODE":76.0396,"ARG_OF_PERICENTER":313.0776,"MEAN_ANOMALY":269.2047,"EPHEMERIS_TYPE":0,"CLASSIFICATION_TYPE":"U","NORAD_CAT_ID":36744,"ELEMENT_SET_NO":999,"REV_AT_EPOCH":5057,"BSTAR":0,"MEAN_MOTION_DOT":-3.52e-6,"MEAN_MOTION_DDOT":0},{"OBJECT_NAME":"FENGYUN 3B","OBJECT_ID":"2010-059A","EPOCH":"2026-04-27T04:18:32.212800","MEAN_MOTION":14.14829523,"ECCENTRICITY":0.0021616,"INCLINATION":98.9674,"RA_OF_ASC_NODE":162.9667,"ARG_OF_PERICENTER":334.0529,"MEAN_ANOMALY":115.3712,"EPHEMERIS_TYPE":0,"CLASSIFICATION_TYPE":"U","NORAD_CAT_ID":37214,"ELEMENT_SET_NO":999,"REV_AT_EPOCH":80021,"BSTAR":-9.1149e-6,"MEAN_MOTION_DOT":-6.3e-7,"MEAN_MOTION_DDOT":0},{"OBJECT_NAME":"SUOMI NPP","OBJECT_ID":"2011-061A","EPOCH":"2026-04-27T04:01:08.030784","MEAN_MOTION":14.19506127,"ECCENTRICITY":0.000277,"INCLINATION":98.7927,"RA_OF_ASC_NODE":58.4007,"ARG_OF_PERICENTER":101.6721,"MEAN_ANOMALY":258.4766,"EPHEMERIS_TYPE":0,"CLASSIFICATION_TYPE":"U","NORAD_CAT_ID":37849,"ELEMENT_SET_NO":999,"REV_AT_EPOCH":75120,"BSTAR":6.0341e-5,"MEAN_MOTION_DOT":8.3e-7,"MEAN_MOTION_DDOT":0},{"OBJECT_NAME":"METEOSAT-10 (MSG-3)","OBJECT_ID":"2012-035B","EPOCH":"2026-04-27T02:53:38.770368","MEAN_MOTION":1.00268137,"ECCENTRICITY":0.0002097,"INCLINATION":4.5534,"RA_OF_ASC_NODE":61.2362,"ARG_OF_PERICENTER":313.1941,"MEAN_ANOMALY":244.2674,"EPHEMERIS_TYPE":0,"CLASSIFICATION_TYPE":"U","NORAD_CAT_ID":38552,"ELEMENT_SET_NO":999,"REV_AT_EPOCH":5034,"BSTAR":0,"MEAN_MOTION_DOT":-1.4e-7,"MEAN_MOTION_DDOT":0},{"OBJECT_NAME":"METOP-B","OBJECT_ID":"2012-049A","EPOCH":"2026-04-27T03:44:16.812960","MEAN_MOTION":14.21433439,"ECCENTRICITY":0.0003418,"INCLINATION":98.6547,"RA_OF_ASC_NODE":169.6624,"ARG_OF_PERICENTER":122.7003,"MEAN_ANOMALY":237.4504,"EPHEMERIS_TYPE":0,"CLASSIFICATION_TYPE":"U","NORAD_CAT_ID":38771,"ELEMENT_SET_NO":999,"REV_AT_EPOCH":70601,"BSTAR":7.6399e-5,"MEAN_MOTION_DOT":1.24e-6,"MEAN_MOTION_DDOT":0},{"OBJECT_NAME":"INSAT-3D","OBJECT_ID":"2013-038B","EPOCH":"2026-04-26T22:44:19.477824","MEAN_MOTION":1.00271904,"ECCENTRICITY":0.0001492,"INCLINATION":1.7955,"RA_OF_ASC_NODE":83.1536,"ARG_OF_PERICENTER":282.793,"MEAN_ANOMALY":319.6017,"EPHEMERIS_TYPE":0,"CLASSIFICATION_TYPE":"U","NORAD_CAT_ID":39216,"ELEMENT_SET_NO":999,"REV_AT_EPOCH":4656,"BSTAR":0,"MEAN_MOTION_DOT":-3.48e-6,"MEAN_MOTION_DDOT":0},{"OBJECT_NAME":"FENGYUN 3C","OBJECT_ID":"2013-052A","EPOCH":"2026-04-27T05:30:08.812224","MEAN_MOTION":14.15742814,"ECCENTRICITY":0.0014877,"INCLINATION":98.4957,"RA_OF_ASC_NODE":93.4543,"ARG_OF_PERICENTER":165.5471,"MEAN_ANOMALY":194.6132,"EPHEMERIS_TYPE":0,"CLASSIFICATION_TYPE":"U","NORAD_CAT_ID":39260,"ELEMENT_SET_NO":999,"REV_AT_EPOCH":65135,"BSTAR":6.9964e-5,"MEAN_MOTION_DOT":9.6e-7,"MEAN_MOTION_DDOT":0},{"OBJECT_NAME":"METEOR-M 2","OBJECT_ID":"2014-037A","EPOCH":"2026-04-27T04:23:24.366624","MEAN_MOTION":14.21447804,"ECCENTRICITY":0.0005607,"INCLINATION":98.5086,"RA_OF_ASC_NODE":94.7378,"ARG_OF_PERICENTER":173.16,"MEAN_ANOMALY":186.9655,"EPHEMERIS_TYPE":0,"CLASSIFICATION_TYPE":"U","NORAD_CAT_ID":40069,"ELEMENT_SET_NO":999,"REV_AT_EPOCH":61207,"BSTAR":0.00020267,"MEAN_MOTION_DOT":4.01e-6,"MEAN_MOTION_DDOT":0},{"OBJECT_NAME":"HIMAWARI-8","OBJECT_ID":"2014-060A","EPOCH":"2026-04-26T22:47:34.168128","MEAN_MOTION":1.00268452,"ECCENTRICITY":9.16e-5,"INCLINATION":0.0244,"RA_OF_ASC_NODE":100.9081,"ARG_OF_PERICENTER":298.9348,"MEAN_ANOMALY":297.6658,"EPHEMERIS_TYPE":0,"CLASSIFICATION_TYPE":"U","NORAD_CAT_ID":40267,"ELEMENT_SET_NO":999,"REV_AT_EPOCH":4224,"BSTAR":0,"MEAN_MOTION_DOT":0,"MEAN_MOTION_DDOT":0},{"OBJECT_NAME":"FENGYUN 2G","OBJECT_ID":"2014-090A","EPOCH":"2026-04-26T21:48:51.741216","MEAN_MOTION":1.00272409,"ECCENTRICITY":0.00029081,"INCLINATION":5.5118,"RA_OF_ASC_NODE":73.4201,"ARG_OF_PERICENTER":145.2152,"MEAN_ANOMALY":63.2783,"EPHEMERIS_TYPE":0,"CLASSIFICATION_TYPE":"U","NORAD_CAT_ID":40367,"ELEMENT_SET_NO":999,"REV_AT_EPOCH":4148,"BSTAR":0,"MEAN_MOTION_DOT":-3.1e-6,"MEAN_MOTION_DDOT":0}]
