DMSP 5D-3 F16 (USA 172) 
1 28054U 03048A   26117.16855961  .00000086  00000+0  68782-4 0  9990
2 28054  98.9930 140.6507 0005976 295.5410 151.4716 14.14477289162275
METEOSAT-9 (MSG-2)      
1 28912U 05049B   26116.93089426  .00000118  00000+0  00000+0 0  9995
2 28912   9.2489  54.6630 0000512 343.3476 197.6940  1.00275091  6487
DMSP 5D-3 F17 (USA 191) 
1 29522U 06050A   26117.18662280  .00000121  00000+0  84839-4 0  9990
2 29522  98.7395 124.7982 0009697 195.1884 164.9000 14.14982959  5213
FENGYUN 3A              
1 32958U 08026A   26116.80556056  .00000083  00000+0  60171-4 0  9993
2 32958  98.6856  58.6087 0007587 277.8297  82.2018 14.19559822928112
GOES 14                 
1 35491U 09033A   26117.10739284 -.00000059  00000+0  00000+0 0  9991
2 35491   1.5602  83.6249 0001770 314.4330  26.1159  1.00116727  6075
DMSP 5D-3 F18 (USA 210) 
1 35951U 09057A   26117.15436419  .00000287  00000+0  17186-3 0  9996
2 35951  98.9017  98.0430 0011877  40.6848 319.5210 14.14866687852374
EWS-G2 (GOES 15)        
1 36411U 10008A   26117.05025186  .00000013  00000+0  00000+0 0  9990
2 36411   1.1430  83.7697 0003987  23.6732 188.9494  1.00272544 59121
COMS 1                  
1 36744U 10032A   26116.87586071 -.00000352  00000+0  00000+0 0  9997
2 36744   4.6751  76.0396 0001051 313.0776 269.2047  1.00272387 50571
FENGYUN 3B              
1 37214U 10059A   26117.17953950 -.00000063  00000+0 -91149-5 0  9997
2 37214  98.9674 162.9667 0021616 334.0529 115.3712 14.14829523800211
SUOMI NPP               
1 37849U 11061A   26117.16745406  .00000083  00000+0  60341-4 0  9998
2 37849  98.7927  58.4007 0002770 101.6721 258.4766 14.19506127751202
METEOSAT-10 (MSG-3)     
1 38552U 12035B   26117.12058762 -.00000014  00000+0  00000+0 0  9996
2 38552   4.5534  61.2362 0002097 313.1941 244.2674  1.00268137 50345
METOP-B                 
1 38771U 12049A   26117.15575015  .00000124  00000+0  76399-4 0  9992
2 38771  98.6547 169.6624 0003418 122.7003 237.4504 14.21433439706015
INSAT-3D                
1 39216U 13038B   26116.94744766 -.00000348  00000+0  00000+0 0  9993
2 39216   1.7955  83.1536 0001492 282.7930 319.6017  1.00271904 46565
FENGYUN 3C              
1 39260U 13052A   26117.22926866  .00000096  00000+0  69964-4 0  9991
2 39260  98.4957  93.4543 0014877 165.5471 194.6132 14.15742814651351
METEOR-M 2              
1 40069U 14037A   26117.18292091  .00000401  00000+0  20267-3 0  9997
2 40069  98.5086  94.7378 0005607 173.1600 186.9655 14.21447804612072
HIMAWARI-8              
1 40267U 14060A   26116.94970102  .00000000  00000+0  00000+0 0  9996
2 40267   0.0244 100.9081 0000916 298.9348 297.6658  1.00268452 42242
FENGYUN 2G              
1 40367U 14090A   26116.90893219 -.00000310  00000+0  00000+0 0  9994
2 40367   5.5118  73.4201 0002908 145.2152  63.2783  1.00272409 41489
